KUIPER-00016            
1 63732U 25088J   25232.33335648 -.00055701  00000+0 -71825-2 0  9997
2 63732  51.8982 282.0000 0010423 131.3510 211.0666 14.80784357 17504
KUIPER-00018            
1 63733U 25088K   25232.30419837  .00006373  00000+0  37683-3 0  9992
2 63733  51.8792 274.0068 0011105 129.4542 230.7418 15.12611514 17626
KUIPER-00019            
1 63734U 25088L   25232.32928092 -.00056227  00000+0 -30149-2 0  9997
2 63734  51.8760 272.6965 0006935 141.9179 218.2289 15.14571822 17640
KUIPER-00020            
1 63735U 25088M   25232.33335648 -.01190933  00000+0 -88540-1 0  9999
2 63735  51.8871 275.1182 0007254 136.9541  56.0778 15.05759440 17819
KUIPER-00021            
1 63736U 25088N   25232.33335648 -.00054331  00000+0 -38929-2 0  9997
2 63736  51.8806 275.9067 0006234 117.4521 117.2569 15.04028104 17630
KUIPER-00023            
1 63737U 25088P   25232.33335648 -.00070746  00000+0 -57075-2 0  9999
2 63737  51.8881 276.9774 0010998 140.9478 305.4159 14.99640588 17921
KUIPER-00024            
1 63738U 25088Q   25232.33335648 -.00674031  00000+0 -28403-1 0  9999
2 63738  51.8794 269.9686 0003149 124.5392 102.9221 15.25398653 18140
KUIPER-00025            
1 63739U 25088R   25232.33335648 -.00016720  00000+0 -10045-2 0  9999
2 63739  51.8850 274.0461 0009346 123.4949 228.1799 15.09840934 17947
