<?xml version="1.0" encoding="UTF-8"?>
<ndm xmlns:xsi="http://www.w3.org/2001/XMLSchema-instance" xsi:noNamespaceSchemaLocation="https://sanaregistry.org/r/ndmxml_unqualified/ndmxml-2.0.0-master-2.0.xsd">
<omm id="CCSDS_OMM_VERS" version="2.0">
<header><CREATION_DATE/><ORIGINATOR/></header><body><segment><metadata><OBJECT_NAME>KUIPER-00016</OBJECT_NAME><OBJECT_ID>2025-088J</OBJECT_ID><CENTER_NAME>EARTH</CENTER_NAME><REF_FRAME>TEME</REF_FRAME><TIME_SYSTEM>UTC</TIME_SYSTEM><MEAN_ELEMENT_THEORY>SGP4</MEAN_ELEMENT_THEORY></metadata><data><meanElements><EPOCH>2025-08-20T08:00:01.999872</EPOCH><MEAN_MOTION>14.80784357</MEAN_MOTION><ECCENTRICITY>.0010423</ECCENTRICITY><INCLINATION>51.8982</INCLINATION><RA_OF_ASC_NODE>282.0000</RA_OF_ASC_NODE><ARG_OF_PERICENTER>131.3510</ARG_OF_PERICENTER><MEAN_ANOMALY>211.0666</MEAN_ANOMALY></meanElements><tleParameters><EPHEMERIS_TYPE>0</EPHEMERIS_TYPE><CLASSIFICATION_TYPE>U</CLASSIFICATION_TYPE><NORAD_CAT_ID>63732</NORAD_CAT_ID><ELEMENT_SET_NO>999</ELEMENT_SET_NO><REV_AT_EPOCH>1750</REV_AT_EPOCH><BSTAR>-.71825E-2</BSTAR><MEAN_MOTION_DOT>-.55701E-3</MEAN_MOTION_DOT><MEAN_MOTION_DDOT>0</MEAN_MOTION_DDOT></tleParameters></data></segment></body></omm>
<omm id="CCSDS_OMM_VERS" version="2.0">
<header><CREATION_DATE/><ORIGINATOR/></header><body><segment><metadata><OBJECT_NAME>KUIPER-00018</OBJECT_NAME><OBJECT_ID>2025-088K</OBJECT_ID><CENTER_NAME>EARTH</CENTER_NAME><REF_FRAME>TEME</REF_FRAME><TIME_SYSTEM>UTC</TIME_SYSTEM><MEAN_ELEMENT_THEORY>SGP4</MEAN_ELEMENT_THEORY></metadata><data><meanElements><EPOCH>2025-08-20T07:18:02.739168</EPOCH><MEAN_MOTION>15.12611514</MEAN_MOTION><ECCENTRICITY>.0011105</ECCENTRICITY><INCLINATION>51.8792</INCLINATION><RA_OF_ASC_NODE>274.0068</RA_OF_ASC_NODE><ARG_OF_PERICENTER>129.4542</ARG_OF_PERICENTER><MEAN_ANOMALY>230.7418</MEAN_ANOMALY></meanElements><tleParameters><EPHEMERIS_TYPE>0</EPHEMERIS_TYPE><CLASSIFICATION_TYPE>U</CLASSIFICATION_TYPE><NORAD_CAT_ID>63733</NORAD_CAT_ID><ELEMENT_SET_NO>999</ELEMENT_SET_NO><REV_AT_EPOCH>1762</REV_AT_EPOCH><BSTAR>.37683E-3</BSTAR><MEAN_MOTION_DOT>.6373E-4</MEAN_MOTION_DOT><MEAN_MOTION_DDOT>0</MEAN_MOTION_DDOT></tleParameters></data></segment></body></omm>
<omm id="CCSDS_OMM_VERS" version="2.0">
<header><CREATION_DATE/><ORIGINATOR/></header><body><segment><metadata><OBJECT_NAME>KUIPER-00019</OBJECT_NAME><OBJECT_ID>2025-088L</OBJECT_ID><CENTER_NAME>EARTH</CENTER_NAME><REF_FRAME>TEME</REF_FRAME><TIME_SYSTEM>UTC</TIME_SYSTEM><MEAN_ELEMENT_THEORY>SGP4</MEAN_ELEMENT_THEORY></metadata><data><meanElements><EPOCH>2025-08-20T07:54:09.871488</EPOCH><MEAN_MOTION>15.14571822</MEAN_MOTION><ECCENTRICITY>.0006935</ECCENTRICITY><INCLINATION>51.8760</INCLINATION><RA_OF_ASC_NODE>272.6965</RA_OF_ASC_NODE><ARG_OF_PERICENTER>141.9179</ARG_OF_PERICENTER><MEAN_ANOMALY>218.2289</MEAN_ANOMALY></meanElements><tleParameters><EPHEMERIS_TYPE>0</EPHEMERIS_TYPE><CLASSIFICATION_TYPE>U</CLASSIFICATION_TYPE><NORAD_CAT_ID>63734</NORAD_CAT_ID><ELEMENT_SET_NO>999</ELEMENT_SET_NO><REV_AT_EPOCH>1764</REV_AT_EPOCH><BSTAR>-.30149E-2</BSTAR><MEAN_MOTION_DOT>-.56227E-3</MEAN_MOTION_DOT><MEAN_MOTION_DDOT>0</MEAN_MOTION_DDOT></tleParameters></data></segment></body></omm>
<omm id="CCSDS_OMM_VERS" version="2.0">
<header><CREATION_DATE/><ORIGINATOR/></header><body><segment><metadata><OBJECT_NAME>KUIPER-00020</OBJECT_NAME><OBJECT_ID>2025-088M</OBJECT_ID><CENTER_NAME>EARTH</CENTER_NAME><REF_FRAME>TEME</REF_FRAME><TIME_SYSTEM>UTC</TIME_SYSTEM><MEAN_ELEMENT_THEORY>SGP4</MEAN_ELEMENT_THEORY></metadata><data><meanElements><EPOCH>2025-08-20T08:00:01.999872</EPOCH><MEAN_MOTION>15.05759440</MEAN_MOTION><ECCENTRICITY>.0007254</ECCENTRICITY><INCLINATION>51.8871</INCLINATION><RA_OF_ASC_NODE>275.1182</RA_OF_ASC_NODE><ARG_OF_PERICENTER>136.9541</ARG_OF_PERICENTER><MEAN_ANOMALY>56.0778</MEAN_ANOMALY></meanElements><tleParameters><EPHEMERIS_TYPE>0</EPHEMERIS_TYPE><CLASSIFICATION_TYPE>U</CLASSIFICATION_TYPE><NORAD_CAT_ID>63735</NORAD_CAT_ID><ELEMENT_SET_NO>999</ELEMENT_SET_NO><REV_AT_EPOCH>1781</REV_AT_EPOCH><BSTAR>-.8854E-1</BSTAR><MEAN_MOTION_DOT>-.1190933E-1</MEAN_MOTION_DOT><MEAN_MOTION_DDOT>0</MEAN_MOTION_DDOT></tleParameters></data></segment></body></omm>
<omm id="CCSDS_OMM_VERS" version="2.0">
<header><CREATION_DATE/><ORIGINATOR/></header><body><segment><metadata><OBJECT_NAME>KUIPER-00021</OBJECT_NAME><OBJECT_ID>2025-088N</OBJECT_ID><CENTER_NAME>EARTH</CENTER_NAME><REF_FRAME>TEME</REF_FRAME><TIME_SYSTEM>UTC</TIME_SYSTEM><MEAN_ELEMENT_THEORY>SGP4</MEAN_ELEMENT_THEORY></metadata><data><meanElements><EPOCH>2025-08-20T08:00:01.999872</EPOCH><MEAN_MOTION>15.04028104</MEAN_MOTION><ECCENTRICITY>.0006234</ECCENTRICITY><INCLINATION>51.8806</INCLINATION><RA_OF_ASC_NODE>275.9067</RA_OF_ASC_NODE><ARG_OF_PERICENTER>117.4521</ARG_OF_PERICENTER><MEAN_ANOMALY>117.2569</MEAN_ANOMALY></meanElements><tleParameters><EPHEMERIS_TYPE>0</EPHEMERIS_TYPE><CLASSIFICATION_TYPE>U</CLASSIFICATION_TYPE><NORAD_CAT_ID>63736</NORAD_CAT_ID><ELEMENT_SET_NO>999</ELEMENT_SET_NO><REV_AT_EPOCH>1763</REV_AT_EPOCH><BSTAR>-.38929E-2</BSTAR><MEAN_MOTION_DOT>-.54331E-3</MEAN_MOTION_DOT><MEAN_MOTION_DDOT>0</MEAN_MOTION_DDOT></tleParameters></data></segment></body></omm>
<omm id="CCSDS_OMM_VERS" version="2.0">
<header><CREATION_DATE/><ORIGINATOR/></header><body><segment><metadata><OBJECT_NAME>KUIPER-00023</OBJECT_NAME><OBJECT_ID>2025-088P</OBJECT_ID><CENTER_NAME>EARTH</CENTER_NAME><REF_FRAME>TEME</REF_FRAME><TIME_SYSTEM>UTC</TIME_SYSTEM><MEAN_ELEMENT_THEORY>SGP4</MEAN_ELEMENT_THEORY></metadata><data><meanElements><EPOCH>2025-08-20T08:00:01.999872</EPOCH><MEAN_MOTION>14.99640588</MEAN_MOTION><ECCENTRICITY>.0010998</ECCENTRICITY><INCLINATION>51.8881</INCLINATION><RA_OF_ASC_NODE>276.9774</RA_OF_ASC_NODE><ARG_OF_PERICENTER>140.9478</ARG_OF_PERICENTER><MEAN_ANOMALY>305.4159</MEAN_ANOMALY></meanElements><tleParameters><EPHEMERIS_TYPE>0</EPHEMERIS_TYPE><CLASSIFICATION_TYPE>U</CLASSIFICATION_TYPE><NORAD_CAT_ID>63737</NORAD_CAT_ID><ELEMENT_SET_NO>999</ELEMENT_SET_NO><REV_AT_EPOCH>1792</REV_AT_EPOCH><BSTAR>-.57075E-2</BSTAR><MEAN_MOTION_DOT>-.70746E-3</MEAN_MOTION_DOT><MEAN_MOTION_DDOT>0</MEAN_MOTION_DDOT></tleParameters></data></segment></body></omm>
<omm id="CCSDS_OMM_VERS" version="2.0">
<header><CREATION_DATE/><ORIGINATOR/></header><body><segment><metadata><OBJECT_NAME>KUIPER-00024</OBJECT_NAME><OBJECT_ID>2025-088Q</OBJECT_ID><CENTER_NAME>EARTH</CENTER_NAME><REF_FRAME>TEME</REF_FRAME><TIME_SYSTEM>UTC</TIME_SYSTEM><MEAN_ELEMENT_THEORY>SGP4</MEAN_ELEMENT_THEORY></metadata><data><meanElements><EPOCH>2025-08-20T08:00:01.999872</EPOCH><MEAN_MOTION>15.25398653</MEAN_MOTION><ECCENTRICITY>.0003149</ECCENTRICITY><INCLINATION>51.8794</INCLINATION><RA_OF_ASC_NODE>269.9686</RA_OF_ASC_NODE><ARG_OF_PERICENTER>124.5392</ARG_OF_PERICENTER><MEAN_ANOMALY>102.9221</MEAN_ANOMALY></meanElements><tleParameters><EPHEMERIS_TYPE>0</EPHEMERIS_TYPE><CLASSIFICATION_TYPE>U</CLASSIFICATION_TYPE><NORAD_CAT_ID>63738</NORAD_CAT_ID><ELEMENT_SET_NO>999</ELEMENT_SET_NO><REV_AT_EPOCH>1814</REV_AT_EPOCH><BSTAR>-.28403E-1</BSTAR><MEAN_MOTION_DOT>-.674031E-2</MEAN_MOTION_DOT><MEAN_MOTION_DDOT>0</MEAN_MOTION_DDOT></tleParameters></data></segment></body></omm>
<omm id="CCSDS_OMM_VERS" version="2.0">
<header><CREATION_DATE/><ORIGINATOR/></header><body><segment><metadata><OBJECT_NAME>KUIPER-00025</OBJECT_NAME><OBJECT_ID>2025-088R</OBJECT_ID><CENTER_NAME>EARTH</CENTER_NAME><REF_FRAME>TEME</REF_FRAME><TIME_SYSTEM>UTC</TIME_SYSTEM><MEAN_ELEMENT_THEORY>SGP4</MEAN_ELEMENT_THEORY></metadata><data><meanElements><EPOCH>2025-08-20T08:00:01.999872</EPOCH><MEAN_MOTION>15.09840934</MEAN_MOTION><ECCENTRICITY>.0009346</ECCENTRICITY><INCLINATION>51.8850</INCLINATION><RA_OF_ASC_NODE>274.0461</RA_OF_ASC_NODE><ARG_OF_PERICENTER>123.4949</ARG_OF_PERICENTER><MEAN_ANOMALY>228.1799</MEAN_ANOMALY></meanElements><tleParameters><EPHEMERIS_TYPE>0</EPHEMERIS_TYPE><CLASSIFICATION_TYPE>U</CLASSIFICATION_TYPE><NORAD_CAT_ID>63739</NORAD_CAT_ID><ELEMENT_SET_NO>999</ELEMENT_SET_NO><REV_AT_EPOCH>1794</REV_AT_EPOCH><BSTAR>-.10045E-2</BSTAR><MEAN_MOTION_DOT>-.1672E-3</MEAN_MOTION_DOT><MEAN_MOTION_DDOT>0</MEAN_MOTION_DDOT></tleParameters></data></segment></body></omm>

</ndm>
